[{"OBJECT_NAME":"ASTROCAST-0402","OBJECT_ID":"2023-001DE","EPOCH":"2026-03-09T19:21:31.190400","MEAN_MOTION":15.26734153,"ECCENTRICITY":0.00042092,"INCLINATION":97.5556,"RA_OF_ASC_NODE":160.6821,"ARG_OF_PERICENTER":216.6984,"MEAN_ANOMALY":143.3966,"EPHEMERIS_TYPE":0,"CLASSIFICATION_TYPE":"U","NORAD_CAT_ID":55109,"ELEMENT_SET_NO":999,"REV_AT_EPOCH":12936,"BSTAR":0.00041835119,"MEAN_MOTION_DOT":0.0001093,"MEAN_MOTION_DDOT":0},{"OBJECT_NAME":"STARLINK-31452","OBJECT_ID":"2024-073S","EPOCH":"2026-03-08T17:13:05.514816","MEAN_MOTION":15.27575157,"ECCENTRICITY":7.728e-5,"INCLINATION":43.0013,"RA_OF_ASC_NODE":323.7939,"ARG_OF_PERICENTER":273.2657,"MEAN_ANOMALY":86.8106,"EPHEMERIS_TYPE":0,"CLASSIFICATION_TYPE":"U","NORAD_CAT_ID":59527,"ELEMENT_SET_NO":999,"REV_AT_EPOCH":10602,"BSTAR":-9.144056e-6,"MEAN_MOTION_DOT":-5.13e-6,"MEAN_MOTION_DDOT":0}]
